NORAD_CAT_ID,OBJECT_NAME,OBJECT_TYPE,EPOCH,MEAN_MOTION,ECCENTRICITY,INCLINATION,RA_OF_ASC_NODE,ARG_OF_PERICENTER,MEAN_ANOMALY,BSTAR,MEAN_MOTION_DOT,MEAN_MOTION_DDOT,TLE_LINE0,TLE_LINE1,TLE_LINE2,SEMIMAJOR_AXIS,PERIOD,APOGEE,PERIGEE,DECAYED
52297.0,STARLINK-3758,PAYLOAD,2023-09-16 02:51:27,15.08846942,0.000132,53.2163,204.3835,82.4896,277.6246,0.00026419,3.92e-05,0.0,0 STARLINK-3758,1 52297U 22041AN  23259.11906849  .00003920  00000-0  26419-3 0  9992,2 52297  53.2163 204.3835 0001320  82.4896 277.6246 15.08846942 79013,6917.859,95.437,540.637,538.811,0.0
52297.0,STARLINK-3758,PAYLOAD,2023-09-16 06:02:13,15.08849042,0.0001337,53.2163,203.7886,82.2401,277.8743,0.00028556,4.261e-05,0.0,0 STARLINK-3758,1 52297U 22041AN  23259.25154751  .00004261  00000-0  28556-3 0  9997,2 52297  53.2163 203.7886 0001337  82.2401 277.8743 15.08849042 77814,6917.853,95.437,540.643,538.793,0.0
52297.0,STARLINK-3758,PAYLOAD,2023-09-17 02:42:14,15.0884691,0.0001345,53.2166,199.9232,82.4259,277.6886,0.00011282,1.508e-05,0.0,0 STARLINK-3758,1 52297U 22041AN  23260.11266790  .00001508  00000-0  11282-3 0  9990,2 52297  53.2166 199.9232 0001345  82.4259 277.6886 15.08846910 79167,6917.859,95.437,540.655,538.794,0.0
52297.0,STARLINK-3758,PAYLOAD,2023-09-17 05:53:00,15.08848751,0.0001348,53.2169,199.3279,83.8579,276.2567,0.00013627,1.882e-05,0.0,0 STARLINK-3758,1 52297U 22041AN  23260.24514681  .00001882  00000-0  13627-3 0  9999,2 52297  53.2169 199.3279 0001348  83.8579 276.2567 15.08848751 77960,6917.854,95.437,540.651,538.786,0.0
52297.0,STARLINK-3758,PAYLOAD,2023-09-18 05:43:47,15.08849604,0.0001326,53.2171,194.8665,93.2182,266.8962,9.9382e-05,1.295e-05,0.0,0 STARLINK-3758,1 52297U 22041AN  23261.23874368  .00001295  00000-0  99382-4 0  9991,2 52297  53.2171 194.8665 0001326  93.2182 266.8962 15.08849604 79338,6917.851,95.437,540.633,538.799,0.0
52297.0,STARLINK-3758,PAYLOAD,2023-09-20 00:39:11,15.08848875,0.0001291,53.2165,186.8378,105.5842,254.5293,0.00014675,2.049e-05,0.0,0 STARLINK-3758,1 52297U 22041AN  23263.02722030  .00002049  00000-0  14675-3 0  9997,2 52297  53.2165 186.8378 0001291 105.5842 254.5293 15.08848875 79604,6917.853,95.437,540.611,538.825,0.0
52297.0,STARLINK-3758,PAYLOAD,2023-09-20 11:46:53,15.08845015,0.0001338,53.2167,184.7588,91.5121,268.6024,0.00011534,1.548e-05,0.0,0 STARLINK-3758,1 52297U 22041AN  23263.49089954  .00001548  00000-0  11534-3 0  9993,2 52297  53.2167 184.7588 0001338  91.5121 268.6024 15.08845015 78455,6917.865,95.437,540.656,538.804,0.0
52297.0,STARLINK-3758,PAYLOAD,2023-09-20 18:08:27,15.08833134,0.0002496,53.2163,183.5721,88.2553,271.8725,-0.00010091,-1.894e-05,0.0,0 STARLINK-3758,1 52297U 22041AN  23263.75586925 -.00001894  00000-0 -10091-3 0  9995,2 52297  53.2163 183.5721 0002496  88.2553 271.8725 15.08833134 79718,6917.901,95.438,541.493,538.04,0.0
52297.0,STARLINK-3758,PAYLOAD,2023-09-21 02:05:23,15.08811647,0.0001521,53.2163,182.0828,90.8329,269.2838,-0.00044191,-7.309e-05,0.0,0 STARLINK-3758,1 52297U 22041AN  23264.08707824 -.00007309  00000-0 -44191-3 0  9990,2 52297  53.2163 182.0828 0001521  90.8329 269.2838 15.08811647 79764,6917.967,95.439,540.884,538.78,0.0
52297.0,STARLINK-3758,PAYLOAD,2023-09-21 05:16:09,15.08815451,0.0001495,53.2158,181.4876,92.1426,267.9738,-0.00023091,-3.959e-05,0.0,0 STARLINK-3758,1 52297U 22041AN  23264.21955951 -.00003959  00000-0 -23091-3 0  9994,2 52297  53.2158 181.4876 0001495  92.1426 267.9738 15.08815451 78565,6917.955,95.439,540.855,538.786,0.0
52297.0,STARLINK-3758,PAYLOAD,2023-09-22 01:56:11,15.08860241,0.0001285,53.2151,177.6226,99.7967,260.3171,0.0017214,0.0002723,0.0,0 STARLINK-3758,1 52297U 22041AN  23265.08068305  .00027230  00000-0  17214-2 0  9993,2 52297  53.2151 177.6226 0001285  99.7967 260.3171 15.08860241 79919,6917.819,95.436,540.572,538.795,0.0
52297.0,STARLINK-3758,PAYLOAD,2023-09-22 03:31:34,15.08865257,0.0001254,53.2149,177.3257,100.0307,260.0827,0.0017836,0.00028232,0.0,0 STARLINK-3758,1 52297U 22041AN  23265.14692161  .00028232  00000-0  17836-2 0  9996,2 52297  53.2149 177.3257 0001254 100.0307 260.0827 15.08865257 78700,6917.803,95.436,540.536,538.801,0.0
52297.0,STARLINK-3758,PAYLOAD,2023-09-22 17:50:02,15.08867389,0.0001445,53.2147,174.649,95.2025,264.9132,0.0017017,0.00026919,0.0,0 STARLINK-3758,1 52297U 22041AN  23265.74308068  .00026919  00000-0  17017-2 0  9993,2 52297  53.2147 174.6490 0001445  95.2025 264.9132 15.08867389 80018,6917.797,95.436,540.661,538.662,0.0
52297.0,STARLINK-3758,PAYLOAD,2023-09-23 03:22:20,15.08873997,0.0001301,53.2156,172.8645,108.9189,251.1944,0.0014709,0.00023221,0.0,0 STARLINK-3758,1 52297U 22041AN  23266.14051316  .00023221  00000-0  14709-2 0  9997,2 52297  53.2156 172.8645 0001301 108.9189 251.1944 15.08873997 80071,6917.776,95.435,540.541,538.741,0.0
52297.0,STARLINK-3758,PAYLOAD,2023-09-23 17:40:49,15.08845084,0.0001102,53.2157,170.188,93.8852,266.2266,0.0010716,0.0001681,0.0,0 STARLINK-3758,1 52297U 22041AN  23266.73667946  .00016810  00000-0  10716-2 0  9994,2 52297  53.2157 170.1880 0001102  93.8852 266.2266 15.08845084 80162,6917.865,95.437,540.492,538.968,0.0
52297.0,STARLINK-3758,PAYLOAD,2023-09-24 03:13:08,15.0884409,0.0001743,53.2155,168.4056,71.6421,288.476,0.00043624,6.662e-05,0.0,0 STARLINK-3758,1 52297U 22041AN  23267.13412043  .00006662  00000-0  43624-3 0  9994,2 52297  53.2155 168.4056 0001743  71.6421 288.4760 15.08844090 80220,6917.868,95.437,540.939,538.527,0.0
52297.0,STARLINK-3758,PAYLOAD,2023-09-24 22:17:45,15.08840204,0.0001642,53.2158,164.8363,84.1923,275.9257,0.00028116,4.189e-05,0.0,0 STARLINK-3758,1 52297U 22041AN  23267.92900292  .00004189  00000-0  28116-3 0  9990,2 52297  53.2158 164.8363 0001642  84.1923 275.9257 15.08840204 79120,6917.88,95.438,540.881,538.609,0.0
52297.0,STARLINK-3758,PAYLOAD,2023-09-24 23:53:08,15.08845501,0.0001628,53.2165,164.5374,87.8021,272.3158,0.00025208,3.727e-05,0.0,0 STARLINK-3758,1 52297U 22041AN  23267.99524064  .00003727  00000-0  25208-3 0  9992,2 52297  53.2165 164.5374 0001628  87.8021 272.3158 15.08845501 80353,6917.864,95.437,540.855,538.602,0.0
52297.0,STARLINK-3758,PAYLOAD,2023-09-25 03:03:54,15.08852203,0.0001645,53.2165,163.9423,89.9681,270.15,0.00045158,6.909e-05,0.0,0 STARLINK-3758,1 52297U 22041AN  23268.12771918  .00006909  00000-0  45158-3 0  9991,2 52297  53.2165 163.9423 0001645  89.9681 270.1500 15.08852203 79155,6917.843,95.437,540.846,538.57,0.0
52297.0,STARLINK-3758,PAYLOAD,2023-09-25 22:08:32,15.08858788,0.0001743,53.2171,160.3723,95.4781,264.641,0.00045172,6.912e-05,0.0,0 STARLINK-3758,1 52297U 22041AN  23268.92259290  .00006912  00000-0  45172-3 0  9993,2 52297  53.2171 160.3723 0001743  95.4781 264.6410 15.08858788 79273,6917.823,95.436,540.894,538.482,0.0
52297.0,STARLINK-3758,PAYLOAD,2023-09-25 23:43:55,15.08861631,0.0001743,53.2173,160.075,91.9294,268.1897,0.00050029,7.688e-05,0.0,0 STARLINK-3758,1 52297U 22041AN  23268.98883171  .00007688  00000-0  50029-3 0  9998,2 52297  53.2173 160.0750 0001743  91.9294 268.1897 15.08861631 79282,6917.814,95.436,540.885,538.473,0.0
52297.0,STARLINK-3758,PAYLOAD,2023-09-26 17:13:10,15.08824473,0.0001728,53.2173,156.8033,103.4815,256.6369,-0.00030052,-5.066e-05,0.0,0 STARLINK-3758,1 52297U 22041AN  23269.71748461 -.00005066  00000-0 -30052-3 0  9996,2 52297  53.2173 156.8033 0001728 103.4815 256.6369 15.08824473 80618,6917.928,95.439,540.988,538.597,0.0
52297.0,STARLINK-3758,PAYLOAD,2023-09-26 20:23:57,15.08809787,0.0001392,53.2171,156.2092,94.3832,265.7319,-0.00057857,-9.476e-05,0.0,0 STARLINK-3758,1 52297U 22041AN  23269.84997140 -.00009476  00000-0 -57857-3 0  9991,2 52297  53.2171 156.2092 0001392  94.3832 265.7319 15.08809787 79412,6917.973,95.439,540.801,538.875,0.0
52297.0,STARLINK-3758,PAYLOAD,2023-09-26 23:34:43,15.08806769,0.0001291,53.2171,155.6152,98.2053,261.9086,-0.00055843,-9.156e-05,0.0,0 STARLINK-3758,1 52297U 22041AN  23269.98245270 -.00009156  00000-0 -55843-3 0  9994,2 52297  53.2171 155.6152 0001291  98.2053 261.9086 15.08806769 80652,6917.982,95.44,540.74,538.954,0.0
52297.0,STARLINK-3758,PAYLOAD,2023-09-27 09:07:03,15.0881844,0.0001062,53.2164,153.8338,110.1382,249.9725,0.00016637,2.359e-05,0.0,0 STARLINK-3758,1 52297U 22041AN  23270.37989806  .00002359  00000-0  16637-3 0  9993,2 52297  53.2164 153.8338 0001062 110.1382 249.9725 15.08818440 80717,6917.946,95.439,540.546,539.077,0.0
52297.0,STARLINK-3758,PAYLOAD,2023-09-27 20:14:45,15.08844489,9.91e-05,53.2171,151.7508,96.2244,263.8861,0.0012164,0.00019126,0.0,0 STARLINK-3758,1 52297U 22041AN  23270.84357934  .00019126  00000-0  12164-2 0  9996,2 52297  53.2171 151.7508 0000991  96.2244 263.8861 15.08844489 80787,6917.867,95.437,540.417,539.046,0.0
52297.0,STARLINK-3758,PAYLOAD,2023-09-27 21:50:08,15.08855166,9.56e-05,53.2168,151.454,94.5022,265.6079,0.0017456,0.00027614,0.0,0 STARLINK-3758,1 52297U 22041AN  23270.90981985  .00027614  00000-0  17456-2 0  9992,2 52297  53.2168 151.4540 0000956  94.5022 265.6079 15.08855166 80798,6917.834,95.437,540.36,539.038,0.0
52297.0,STARLINK-3758,PAYLOAD,2023-09-28 21:40:54,15.08867856,9.16e-05,53.2163,146.9934,91.2076,268.9021,0.00095713,0.00014989,0.0,0 STARLINK-3758,1 52297U 22041AN  23271.90340832  .00014989  00000-0  95713-3 0  9997,2 52297  53.2163 146.9934 0000916  91.2076 268.9021 15.08867856 79721,6917.795,95.436,540.294,539.027,0.0
52297.0,STARLINK-3758,PAYLOAD,2023-09-29 00:51:40,15.08869783,9.01e-05,53.2161,146.3989,92.4938,267.6157,0.0009954,0.00015602,0.0,0 STARLINK-3758,1 52297U 22041AN  23272.03588599  .00015602  00000-0  99540-3 0  9991,2 52297  53.2161 146.3989 0000901  92.4938 267.6157 15.08869783 80962,6917.789,95.436,540.278,539.031,0.0
52297.0,STARLINK-3758,PAYLOAD,2023-09-29 23:07:04,15.08861322,0.0001098,53.2158,142.2341,103.9857,256.1258,0.00093885,0.00014694,0.0,0 STARLINK-3758,1 52297U 22041AN  23272.96324185  .00014694  00000-0  93885-3 0  9998,2 52297  53.2158 142.2341 0001098 103.9857 256.1258 15.08861322 81104,6917.815,95.436,540.44,538.921,0.0
